start=new Date('2022-12-31T00:00:00.000Z').valueOf();
sats=[{"DECAY_DATE":null,"FILE":"3726965","ARG_OF_PERICENTER":"46.8664","PERIAPSIS":"538.263","OBJECT_NAME":"STARLINK-4104","BSTAR":"0.00027140000000","RA_OF_ASC_NODE":"355.0389","CENTER_NAME":"EARTH","OBJECT_TYPE":"PAYLOAD","MEAN_MOTION_DOT":"0.00004034","EPHEMERIS_TYPE":"0","NORAD_CAT_ID":"53163","LAUNCH_DATE":"2022-07-17","APOAPSIS":"541.192","REF_FRAME":"TEME","MEAN_MOTION_DDOT":"0.0000000000000","PERIOD":"95.437","INCLINATION":"53.2155","TLE_LINE2":"2 53163  53.2155 355.0389 0002117  46.8664 313.2504 15.08845830 26085","SITE":"AFETR","TLE_LINE1":"1 53163U 22083AH  22364.46215222  .00004034  00000-0  27140-3 0  9992","COUNTRY_CODE":"US","MEAN_MOTION":"15.08845830","TIME_SYSTEM":"UTC","CLASSIFICATION_TYPE":"U","RCS_SIZE":"LARGE","EPOCH":"2022-12-30T11:05:29.951808","MEAN_ANOMALY":"313.2504","REV_AT_EPOCH":"2608","ELEMENT_SET_NO":"999","SEMIMAJOR_AXIS":"6917.863","ECCENTRICITY":"0.00021170","MEAN_ELEMENT_THEORY":"SGP4","OBJECT_ID":"2022-083AH","GP_ID":"221793556"},{"RCS_SIZE":"LARGE","EPOCH":"2022-12-30T16:06:10.264896","CLASSIFICATION_TYPE":"U","TIME_SYSTEM":"UTC","MEAN_MOTION":"15.08845696","COUNTRY_CODE":"US","SITE":"AFETR","TLE_LINE1":"1 53164U 22083AJ  22364.67095214  .00000238  00000-0  33100-4 0  9999","INCLINATION":"53.2194","TLE_LINE2":"2 53164  53.2194 354.0926 0002622  30.0204 330.0938 15.08845696 26113","OBJECT_ID":"2022-083AJ","GP_ID":"221793064","MEAN_ELEMENT_THEORY":"SGP4","SEMIMAJOR_AXIS":"6917.863","ECCENTRICITY":"0.00026220","ELEMENT_SET_NO":"999","REV_AT_EPOCH":"2611","MEAN_ANOMALY":"330.0938","EPHEMERIS_TYPE":"0","OBJECT_TYPE":"PAYLOAD","MEAN_MOTION_DOT":"0.00000238","CENTER_NAME":"EARTH","RA_OF_ASC_NODE":"354.0926","OBJECT_NAME":"STARLINK-4116","BSTAR":"0.00003310000000","FILE":"3726952","PERIAPSIS":"537.914","ARG_OF_PERICENTER":"30.0204","DECAY_DATE":null,"PERIOD":"95.437","MEAN_MOTION_DDOT":"0.0000000000000","REF_FRAME":"TEME","APOAPSIS":"541.542","LAUNCH_DATE":"2022-07-17","NORAD_CAT_ID":"53164"},{"OBJECT_NAME":"STARLINK-4090","BSTAR":"0.00030452000000","RA_OF_ASC_NODE":"355.9527","DECAY_DATE":null,"FILE":"3726810","PERIAPSIS":"537.991","ARG_OF_PERICENTER":"36.5654","EPHEMERIS_TYPE":"0","CENTER_NAME":"EARTH","OBJECT_TYPE":"PAYLOAD","MEAN_MOTION_DOT":"0.00004562","LAUNCH_DATE":"2022-07-17","NORAD_CAT_ID":"53165","MEAN_MOTION_DDOT":"0.0000000000000","PERIOD":"95.437","APOAPSIS":"541.491","REF_FRAME":"TEME","TLE_LINE1":"1 53165U 22083AK  22364.25879940  .00004562  00000-0  30452-3 0  9990","SITE":"AFETR","COUNTRY_CODE":"US","INCLINATION":"53.2177","TLE_LINE2":"2 53165  53.2177 355.9527 0002529  36.5654 323.5511 15.08841431 25428","CLASSIFICATION_TYPE":"U","RCS_SIZE":"LARGE","EPOCH":"2022-12-30T06:12:40.268160","MEAN_MOTION":"15.08841431","TIME_SYSTEM":"UTC","ELEMENT_SET_NO":"999","REV_AT_EPOCH":"2542","MEAN_ANOMALY":"323.5511","OBJECT_ID":"2022-083AK","GP_ID":"221789821","SEMIMAJOR_AXIS":"6917.876","ECCENTRICITY":"0.00025290","MEAN_ELEMENT_THEORY":"SGP4"},{"REF_FRAME":"TEME","APOAPSIS":"541.310","PERIOD":"95.437","MEAN_MOTION_DDOT":"0.0000000000000","NORAD_CAT_ID":"53166","LAUNCH_DATE":"2022-07-17","OBJECT_TYPE":"PAYLOAD","MEAN_MOTION_DOT":"0.00002163","CENTER_NAME":"EARTH","EPHEMERIS_TYPE":"0","FILE":"3726810","ARG_OF_PERICENTER":"38.3295","PERIAPSIS":"538.167","DECAY_DATE":null,"RA_OF_ASC_NODE":"355.3279","OBJECT_NAME":"STARLINK-4110","BSTAR":"0.00015397000000","MEAN_ELEMENT_THEORY":"SGP4","SEMIMAJOR_AXIS":"6917.873","ECCENTRICITY":"0.00022710","OBJECT_ID":"2022-083AL","GP_ID":"221790030","REV_AT_EPOCH":"2544","MEAN_ANOMALY":"321.7858","ELEMENT_SET_NO":"999","TIME_SYSTEM":"UTC","MEAN_MOTION":"15.08842256","RCS_SIZE":"LARGE","EPOCH":"2022-12-30T09:34:01.308000","CLASSIFICATION_TYPE":"U","INCLINATION":"53.2191","TLE_LINE2":"2 53166  53.2191 355.3279 0002271  38.3295 321.7858 15.08842256 25440","COUNTRY_CODE":"US","TLE_LINE1":"1 53166U 22083AL  22364.39862625  .00002163  00000-0  15397-3 0  9994","SITE":"AFETR"},{"RA_OF_ASC_NODE":"340.2559","BSTAR":"0.00037416000000","OBJECT_NAME":"STARLINK-3683","PERIAPSIS":"538.360","ARG_OF_PERICENTER":"46.8893","FILE":"3726810","DECAY_DATE":null,"EPHEMERIS_TYPE":"0","MEAN_MOTION_DOT":"0.00005674","OBJECT_TYPE":"PAYLOAD","CENTER_NAME":"EARTH","LAUNCH_DATE":"2022-07-17","NORAD_CAT_ID":"53167","PERIOD":"95.437","MEAN_MOTION_DDOT":"0.0000000000000","REF_FRAME":"TEME","APOAPSIS":"541.058","COUNTRY_CODE":"US","SITE":"AFETR","TLE_LINE1":"1 53167U 22083AM  22364.41016740  .00005674  00000-0  37416-3 0  9993","TLE_LINE2":"2 53167  53.2182 340.2559 0001950  46.8893 313.2262 15.08851994 25642","INCLINATION":"53.2182","EPOCH":"2022-12-30T09:50:38.463360","RCS_SIZE":"LARGE","CLASSIFICATION_TYPE":"U","TIME_SYSTEM":"UTC","MEAN_MOTION":"15.08851994","ELEMENT_SET_NO":"999","REV_AT_EPOCH":"2564","MEAN_ANOMALY":"313.2262","GP_ID":"221790658","OBJECT_ID":"2022-083AM","MEAN_ELEMENT_THEORY":"SGP4","ECCENTRICITY":"0.00019500","SEMIMAJOR_AXIS":"6917.844"},{"RCS_SIZE":"LARGE","EPOCH":"2022-12-30T09:28:43.764672","CLASSIFICATION_TYPE":"U","TIME_SYSTEM":"UTC","MEAN_MOTION":"15.08849753","COUNTRY_CODE":"US","TLE_LINE1":"1 53168U 22083AN  22364.39495098 -.00001533  00000-0 -78185-4 0  9999","SITE":"AFETR","INCLINATION":"53.2160","TLE_LINE2":"2 53168  53.2160 355.3395 0002749  35.2012 324.9162 15.08849753 25442","OBJECT_ID":"2022-083AN","GP_ID":"221790867","MEAN_ELEMENT_THEORY":"SGP4","SEMIMAJOR_AXIS":"6917.851","ECCENTRICITY":"0.00027490","ELEMENT_SET_NO":"999","REV_AT_EPOCH":"2544","MEAN_ANOMALY":"324.9162","EPHEMERIS_TYPE":"0","OBJECT_TYPE":"PAYLOAD","MEAN_MOTION_DOT":"-0.00001533","CENTER_NAME":"EARTH","RA_OF_ASC_NODE":"355.3395","OBJECT_NAME":"STARLINK-4105","BSTAR":"-0.00007818500000","FILE":"3726810","PERIAPSIS":"537.814","ARG_OF_PERICENTER":"35.2012","DECAY_DATE":null,"PERIOD":"95.437","MEAN_MOTION_DDOT":"0.0000000000000","REF_FRAME":"TEME","APOAPSIS":"541.617","LAUNCH_DATE":"2022-07-17","NORAD_CAT_ID":"53168"},{"SEMIMAJOR_AXIS":"6917.853","ECCENTRICITY":"0.00024230","MEAN_ELEMENT_THEORY":"SGP4","OBJECT_ID":"2022-083AP","GP_ID":"221789403","MEAN_ANOMALY":"324.3129","REV_AT_EPOCH":"2564","ELEMENT_SET_NO":"999","MEAN_MOTION":"15.08848884","TIME_SYSTEM":"UTC","CLASSIFICATION_TYPE":"U","RCS_SIZE":"LARGE","EPOCH":"2022-12-30T10:17:07.437120","INCLINATION":"53.2163","TLE_LINE2":"2 53169  53.2163 340.1734 0002423  35.8025 324.3129 15.08848884 25647","TLE_LINE1":"1 53169U 22083AP  22364.42855830 -.00001540  00000-0 -78658-4 0  9991","SITE":"AFETR","COUNTRY_CODE":"US","APOAPSIS":"541.394","REF_FRAME":"TEME","MEAN_MOTION_DDOT":"0.0000000000000","PERIOD":"95.437","NORAD_CAT_ID":"53169","LAUNCH_DATE":"2022-07-17","CENTER_NAME":"EARTH","OBJECT_TYPE":"PAYLOAD","MEAN_MOTION_DOT":"-0.00001540","EPHEMERIS_TYPE":"0","DECAY_DATE":null,"FILE":"3726810","ARG_OF_PERICENTER":"35.8025","PERIAPSIS":"538.042","OBJECT_NAME":"STARLINK-4117","BSTAR":"-0.00007865800000","RA_OF_ASC_NODE":"340.1734"},{"LAUNCH_DATE":"2022-07-17","NORAD_CAT_ID":"53170","MEAN_MOTION_DDOT":"0.0000000000000","PERIOD":"95.437","APOAPSIS":"541.602","REF_FRAME":"TEME","OBJECT_NAME":"STARLINK-4095","BSTAR":"-0.00006899700000","RA_OF_ASC_NODE":"350.4798","DECAY_DATE":null,"FILE":"3726810","PERIAPSIS":"537.866","ARG_OF_PERICENTER":"34.5094","EPHEMERIS_TYPE":"0","CENTER_NAME":"EARTH","OBJECT_TYPE":"PAYLOAD","MEAN_MOTION_DOT":"-0.00001387","ELEMENT_SET_NO":"999","REV_AT_EPOCH":"2550","MEAN_ANOMALY":"325.6073","OBJECT_ID":"2022-083AQ","GP_ID":"221789612","SEMIMAJOR_AXIS":"6917.869","ECCENTRICITY":"0.00027000","MEAN_ELEMENT_THEORY":"SGP4","SITE":"AFETR","TLE_LINE1":"1 53170U 22083AQ  22364.36141217 -.00001387  00000-0 -68997-4 0  9997","COUNTRY_CODE":"US","INCLINATION":"53.2184","TLE_LINE2":"2 53170  53.2184 350.4798 0002700  34.5094 325.6073 15.08843798 25502","CLASSIFICATION_TYPE":"U","RCS_SIZE":"LARGE","EPOCH":"2022-12-30T08:40:26.011488","MEAN_MOTION":"15.08843798","TIME_SYSTEM":"UTC"},{"CENTER_NAME":"EARTH","MEAN_MOTION_DOT":"0.00000820","OBJECT_TYPE":"PAYLOAD","EPHEMERIS_TYPE":"0","DECAY_DATE":null,"ARG_OF_PERICENTER":"102.7012","PERIAPSIS":"538.955","FILE":"3726810","BSTAR":"0.00006956000000","OBJECT_NAME":"STARLINK-4052","RA_OF_ASC_NODE":"325.9652","APOAPSIS":"540.475","REF_FRAME":"TEME","MEAN_MOTION_DDOT":"0.0000000000000","PERIOD":"95.437","NORAD_CAT_ID":"53171","LAUNCH_DATE":"2022-07-17","MEAN_MOTION":"15.08849971","TIME_SYSTEM":"UTC","CLASSIFICATION_TYPE":"U","EPOCH":"2022-12-30T04:47:53.918304","RCS_SIZE":"LARGE","TLE_LINE2":"2 53171  53.2184 325.9652 0001099 102.7012 257.4103 15.08849971 25827","INCLINATION":"53.2184","SITE":"AFETR","TLE_LINE1":"1 53171U 22083AR  22364.19992961  .00000820  00000-0  69560-4 0  9995","COUNTRY_CODE":"US","ECCENTRICITY":"0.00010990","SEMIMAJOR_AXIS":"6917.850","MEAN_ELEMENT_THEORY":"SGP4","GP_ID":"221790240","OBJECT_ID":"2022-083AR","REV_AT_EPOCH":"2582","MEAN_ANOMALY":"257.4103","ELEMENT_SET_NO":"999"},{"OBJECT_ID":"2022-083AS","GP_ID":"221790449","MEAN_ELEMENT_THEORY":"SGP4","SEMIMAJOR_AXIS":"6917.858","ECCENTRICITY":"0.00024890","ELEMENT_SET_NO":"999","REV_AT_EPOCH":"2549","MEAN_ANOMALY":"321.9483","RCS_SIZE":"LARGE","EPOCH":"2022-12-30T08:35:08.079360","CLASSIFICATION_TYPE":"U","TIME_SYSTEM":"UTC","MEAN_MOTION":"15.08847263","COUNTRY_CODE":"US","SITE":"AFETR","TLE_LINE1":"1 53172U 22083AS  22364.35773240 -.00001702  00000-0 -88845-4 0  9990","INCLINATION":"53.2192","TLE_LINE2":"2 53172  53.2192 350.4960 0002489  38.1685 321.9483 15.08847263 25497","PERIOD":"95.437","MEAN_MOTION_DDOT":"0.0000000000000","REF_FRAME":"TEME","APOAPSIS":"541.445","LAUNCH_DATE":"2022-07-17","NORAD_CAT_ID":"53172","EPHEMERIS_TYPE":"0","OBJECT_TYPE":"PAYLOAD","MEAN_MOTION_DOT":"-0.00001702","CENTER_NAME":"EARTH","RA_OF_ASC_NODE":"350.4960","OBJECT_NAME":"STARLINK-4299","BSTAR":"-0.00008884500000","FILE":"3726810","ARG_OF_PERICENTER":"38.1685","PERIAPSIS":"538.001","DECAY_DATE":null}];
